{
  "norad_id": 62016,
  "name": "STARLINK-11393 [DTC]",
  "history": [
    {
      "epoch": "2026-03-28T21:12:09.522720",
      "apogee_km": 360.3857844759723,
      "perigee_km": 358.9597944121342,
      "latitude_deg": 53.15430433280981,
      "longitude_deg": 106.41058080014773,
      "semi_major_axis_km": 6737.809789444053,
      "eccentricity": 0.00010582,
      "inclination_deg": 53.1572,
      "raan_deg": 306.3566,
      "arg_perigee_deg": 50.1388,
      "mean_anomaly_deg": 309.9723,
      "mean_motion_rev_day": 15.69728857
    }
  ]
}