{"fetched_at":"2026-03-29T16:36:15Z","count":15609,"tles":[{"name":"STARLINK-11393 [DTC]","line1":"1 62016U 24213J   26087.88344355  .00280218  00000+0  22388-2 0  9995","line2":"2 62016  53.1572 306.3566 0001058  50.1388 309.9723 15.69728857 77935","category":"Starlink"}]}